ONEWEB-0283             
1 49001U 21060AL  24287.68981197 -.00000106  00000+0 -31094-3 0  9993
2 49001  87.9149 350.5978 0002179 104.3455 255.7918 13.16592227159158
ONEWEB-0284             
1 49002U 21060AM  24287.68345950  .00000733  00000+0  18848-2 0  9990
2 49002  87.9169 350.5710 0001677 107.1741 252.9574 13.16594198159130
ONEWEB-0285             
1 49075U 21075A   24287.79070764 -.00000170  00000+0 -50881-3 0  9997
2 49075  87.8841 112.4291 0001662  83.8720 276.2598 13.12442733155017
ONEWEB-0286             
1 49076U 21075B   24288.21960366 -.00000004  00000+0 -46888-4 0  9991
2 49076  87.8837 112.3420 0001382  82.7845 277.3440 13.12440193155400
ONEWEB-0287             
1 49077U 21075C   24288.10828993  .00000102  00000+0  22998-3 0  9991
2 49077  87.9086 127.5948 0001533  77.1429 282.9873 13.17647027154125
ONEWEB-0288             
1 49078U 21075D   24287.74839993  .00000397  00000+0  10674-2 0  9996
2 49078  87.8835 112.4393 0001613  80.3852 279.7459 13.12444052154985
ONEWEB-0289             
1 49079U 21075E   24287.83324904  .00000121  00000+0  27806-3 0  9999
2 49079  87.9086 127.6788 0001756  83.4411 276.6921 13.17650704153699
ONEWEB-0290             
1 49080U 21075F   24288.12011726  .00000004  00000+0 -22387-4 0  9990
2 49080  87.9086 127.5808 0002358  77.6198 282.5197 13.17649390154128
